{
  "norad_id": 48309,
  "name": "STARLINK-2517",
  "history": [
    {
      "epoch": "2026-04-13T07:29:30.332832Z",
      "apogee_km": 473.67249473325955,
      "perigee_km": 471.7734363508107,
      "latitude_deg": -1.570041093020833e-06,
      "longitude_deg": -26.38593267112109,
      "height_km": 473.5227034930049,
      "semi_major_axis_km": 6850.859965542035,
      "eccentricity": 0.0001386,
      "inclination_deg": 53.1595,
      "raan_deg": 287.4952,
      "arg_perigee_deg": 84.048,
      "mean_anomaly_deg": 276.0679,
      "mean_motion_rev_day": 15.31035026
    },
    {
      "epoch": "2026-04-14T17:57:32.128992Z",
      "apogee_km": 473.99799670627,
      "perigee_km": 471.41933839700323,
      "latitude_deg": 2.4407131616035587e-05,
      "longitude_deg": 168.5103880246699,
      "height_km": 473.63322102643417,
      "semi_major_axis_km": 6850.845667551636,
      "eccentricity": 0.0001882,
      "inclination_deg": 53.1592,
      "raan_deg": 280.8145,
      "arg_perigee_deg": 91.2046,
      "mean_anomaly_deg": 268.9171,
      "mean_motion_rev_day": 15.31039819
    },
    {
      "epoch": "2026-04-15T20:35:34.477152Z",
      "apogee_km": 473.8504955018252,
      "perigee_km": 471.63903086866867,
      "latitude_deg": 9.936628836642833e-07,
      "longitude_deg": 122.7464697563096,
      "height_km": 473.6731068608885,
      "semi_major_axis_km": 6850.881763185246,
      "eccentricity": 0.0001614,
      "inclination_deg": 53.1613,
      "raan_deg": 275.6542,
      "arg_perigee_deg": 91.5695,
      "mean_anomaly_deg": 268.5491,
      "mean_motion_rev_day": 15.31027719
    },
    {
      "epoch": "2026-04-16T10:41:35.025792Z",
      "apogee_km": 473.6457700193205,
      "perigee_km": 471.78507850089045,
      "latitude_deg": -3.1492072974733694e-05,
      "longitude_deg": -92.06651200234147,
      "height_km": 473.55580444069994,
      "semi_major_axis_km": 6850.852424260105,
      "eccentricity": 0.0001358,
      "inclination_deg": 53.1606,
      "raan_deg": 272.9226,
      "arg_perigee_deg": 86.4273,
      "mean_anomaly_deg": 273.6883,
      "mean_motion_rev_day": 15.31037554
    },
    {
      "epoch": "2026-04-17T19:35:37.754016Z",
      "apogee_km": 473.6073371749353,
      "perigee_km": 471.8606391077992,
      "latitude_deg": 2.9491810272222415e-06,
      "longitude_deg": 126.69686193817293,
      "height_km": 473.52155508189054,
      "semi_major_axis_km": 6850.870988141367,
      "eccentricity": 0.00012748,
      "inclination_deg": 53.1609,
      "raan_deg": 266.5485,
      "arg_perigee_deg": 82.7022,
      "mean_anomaly_deg": 277.4124,
      "mean_motion_rev_day": 15.31031331
    },
    {
      "epoch": "2026-04-18T14:23:39.571584Z",
      "apogee_km": 473.76378718905835,
      "perigee_km": 471.7509944170406,
      "latitude_deg": 2.913537799580014e-06,
      "longitude_deg": -159.72702038046845,
      "height_km": 473.5255058414871,
      "semi_major_axis_km": 6850.894390803049,
      "eccentricity": 0.0001469,
      "inclination_deg": 53.1595,
      "raan_deg": 262.9043,
      "arg_perigee_deg": 82.5798,
      "mean_anomaly_deg": 277.537,
      "mean_motion_rev_day": 15.31023486
    },
    {
      "epoch": "2026-04-19T20:09:40.485024Z",
      "apogee_km": 473.4686229679073,
      "perigee_km": 471.8819748394799,
      "latitude_deg": 4.496533980139145e-05,
      "longitude_deg": 106.77731990779533,
      "height_km": 473.3736366817419,
      "semi_major_axis_km": 6850.812298903693,
      "eccentricity": 0.0001158,
      "inclination_deg": 53.1604,
      "raan_deg": 257.1349,
      "arg_perigee_deg": 75.3746,
      "mean_anomaly_deg": 284.7384,
      "mean_motion_rev_day": 15.31051005
    },
    {
      "epoch": "2026-04-20T10:15:42.022080Z",
      "apogee_km": 473.9455914638593,
      "perigee_km": 471.49750567011506,
      "latitude_deg": -2.9894934594058415e-06,
      "longitude_deg": -108.04150532504985,
      "height_km": 473.45957905387985,
      "semi_major_axis_km": 6850.858548566987,
      "eccentricity": 0.00017867,
      "inclination_deg": 53.1604,
      "raan_deg": 254.4016,
      "arg_perigee_deg": 82.5027,
      "mean_anomaly_deg": 277.6177,
      "mean_motion_rev_day": 15.31035501
    },
    {
      "epoch": "2026-04-21T16:01:43.411584Z",
      "apogee_km": 473.6121650917521,
      "perigee_km": 471.7857322278405,
      "latitude_deg": 1.2255248640381412e-05,
      "longitude_deg": 158.46442400534792,
      "height_km": 473.6041012558236,
      "semi_major_axis_km": 6850.8359486597965,
      "eccentricity": 0.0001333,
      "inclination_deg": 53.1609,
      "raan_deg": 248.6358,
      "arg_perigee_deg": 90.4229,
      "mean_anomaly_deg": 269.6925,
      "mean_motion_rev_day": 15.31043077
    },
    {
      "epoch": "2026-04-22T15:31:44.122944Z",
      "apogee_km": 473.56357145186666,
      "perigee_km": 471.7823608606668,
      "latitude_deg": -4.186707246298899e-05,
      "longitude_deg": 160.44179842035626,
      "height_km": 473.4959478965399,
      "semi_major_axis_km": 6850.8099661562665,
      "eccentricity": 0.00013,
      "inclination_deg": 53.1612,
      "raan_deg": 244.0813,
      "arg_perigee_deg": 85.1352,
      "mean_anomaly_deg": 274.9797,
      "mean_motion_rev_day": 15.31051787
    },
    {
      "epoch": "2026-04-23T11:53:45.969216Z",
      "apogee_km": 473.5308813799229,
      "perigee_km": 471.9149005488425,
      "latitude_deg": -1.067349786726748e-05,
      "longitude_deg": -149.85122321925473,
      "height_km": 473.33107695455254,
      "semi_major_axis_km": 6850.859890964382,
      "eccentricity": 0.00011794,
      "inclination_deg": 53.1614,
      "raan_deg": 240.1324,
      "arg_perigee_deg": 68.9206,
      "mean_anomaly_deg": 291.1921,
      "mean_motion_rev_day": 15.31035051
    },
    {
      "epoch": "2026-04-24T12:57:59.266656Z",
      "apogee_km": 475.44235312079127,
      "perigee_km": 472.38907843064135,
      "latitude_deg": 1.2739692566137698e-05,
      "longitude_deg": -171.79681627221487,
      "height_km": 476.00848490379184,
      "semi_major_axis_km": 6852.052715775716,
      "eccentricity": 0.0002228,
      "inclination_deg": 53.1508,
      "raan_deg": 235.2718,
      "arg_perigee_deg": 141.5566,
      "mean_anomaly_deg": 218.5594,
      "mean_motion_rev_day": 15.30635278
    }
  ]
}